OBJECT_NAME,OBJECT_ID,EPOCH,MEAN_MOTION,ECCENTRICITY,INCLINATION,RA_OF_ASC_NODE,ARG_OF_PERICENTER,MEAN_ANOMALY,EPHEMERIS_TYPE,CLASSIFICATION_TYPE,NORAD_CAT_ID,ELEMENT_SET_NO,REV_AT_EPOCH,BSTAR,MEAN_MOTION_DOT,MEAN_MOTION_DDOT
SNUGLITE-II,2022-065F,2026-07-17T05:34:52.307040,14.64396115,.0006186,98.2239,343.0164,292.8673,67.1876,0,U,52899,999,21539,.86535E-4,.409E-5,0
MIMAN,2022-065G,2026-07-17T08:53:00.773376,14.61872862,.0006356,98.2299,340.7069,295.6982,64.3562,0,U,52900,999,21485,.53346E-4,.219E-5,0
STARLINK-4362,2022-077A,2026-07-17T10:30:18.607104,15.05654518,.0001324,97.2859,15.7632,101.7305,258.4072,0,U,53043,999,22043,.22786E-4,.273E-5,0
LARES-2,2022-080A,2026-07-11T06:32:52.952640,6.38965058,.00051703,70.1562,297.0691,331.4390,28.5953,0,U,53105,999,9320,0,-.16E-6,0
GREENCUBE (IO-117),2022-080E,2026-07-17T05:19:51.690720,6.42583336,.0009072,70.1407,287.8015,282.9900,76.9746,0,U,53109,999,9399,0,-.3E-7,0
STARLINK-4410,2022-084R,2026-07-17T18:00:02.998944,15.41196317,.0001278,97.6010,260.9401,78.9737,94.2747,0,U,53204,999,588,-.71922E-2,-.287386E-2,0
COSMOS 2558,2022-089A,2026-07-17T16:48:07.147008,15.82203532,.0004147,97.2237,304.1648,223.1176,136.9769,0,U,53323,999,22264,.49405E-3,.101952E-2,0
TECMS,2022-090A,2026-07-17T17:49:40.528416,15.21242391,.0005447,97.3124,265.9838,78.8542,281.3306,0,U,53346,999,21945,.80596E-4,.1733E-4,0
DONGPO 02,2022-098J,2026-07-17T17:48:13.947840,15.81674098,.0004568,97.5567,332.7540,211.3623,148.7373,0,U,53452,999,21961,.51981E-3,.104733E-2,0
DONGPO 01,2022-098K,2026-07-17T17:15:51.028704,15.78541133,.0002954,97.5625,333.1573,202.4890,157.6247,0,U,53453,999,21956,.49774E-3,.86777E-3,0
STARLINK-4400,2022-099D,2026-07-17T06:49:00.687936,15.05657802,.0001558,97.2840,315.6984,127.0627,233.0743,0,U,53468,999,21547,.33515E-4,.427E-5,0
STARLINK-4621,2022-105AE,2026-07-17T02:05:54.110976,15.05659141,.00016523,97.2839,75.5290,92.3382,267.8035,0,U,53676,999,21270,-.5146447E-5,-.131E-5,0
SHERPA-LTC2,2022-107BG,2026-07-17T00:54:38.238048,14.69925975,.0392945,53.2366,93.9462,309.8870,46.8162,0,U,53754,999,20693,.10492E-3,.1792E-4,0
CENTISPACE-1 S3,2022-108A,2026-07-17T15:29:09.173184,14.61284667,.0010791,53.5334,289.3107,70.2497,289.9641,0,U,53757,999,20598,.56749E-4,.92E-6,0
CENTISPACE-1 S4,2022-108B,2026-07-17T16:24:23.783040,14.61970873,.0010136,53.5309,286.5246,59.8642,300.3337,0,U,53758,999,20602,.33733E-4,-.2E-6,0
BLUEWALKER-3,2022-111AL,2026-07-17T03:04:22.440000,15.38622140,.00045719,53.2277,253.3696,275.2529,84.7955,0,U,53807,999,21481,.74459542E-4,.2487E-4,0
YUNHAI-1 03,2022-115A,2026-07-17T16:56:52.414944,14.32737935,.0004,98.5546,196.4676,331.1513,28.9449,0,U,53877,999,19988,.88995E-4,.199E-5,0
CENTISPACE-1 S5,2022-126A,2026-07-17T16:36:16.761024,14.63059321,.001427,54.9991,90.8853,129.2214,231.0049,0,U,54020,999,20150,.98843E-4,.322E-5,0
CENTISPACE-1 S6,2022-126B,2026-07-17T16:48:29.930688,14.62319078,.001606,54.9993,92.8600,130.5693,229.6702,0,U,54021,999,20146,.87811E-4,.258E-5,0
OTB-3-GAZELLE,2022-127A,2026-07-17T10:30:11.378880,14.42684477,.0014471,98.3962,189.6837,96.7930,263.4907,0,U,54023,999,19872,.28802E-4,.53E-6,0
ASO-S,2022-129A,2026-07-17T17:03:50.806080,14.52075485,.0014378,98.2757,203.3557,4.7420,355.3910,0,U,54029,999,19985,.27749E-4,.68E-6,0
HJ-2E,2022-132A,2026-07-17T17:08:33.074880,15.22713190,.001804,97.3806,202.5504,260.6840,99.2357,0,U,54035,999,20906,.16159E-3,.3712E-4,0
COSMOS 2561,2022-137A,2026-07-17T17:19:44.105664,15.52412748,.0008182,96.9165,256.5933,269.3300,90.7017,0,U,54109,999,21108,.12099E-3,.7304E-4,0
GONETS-M 23,2022-139A,2026-07-17T16:34:29.244864,12.42891952,.0022222,82.5096,329.3378,153.2357,206.9874,0,U,54150,999,16943,.7663E-4,.21E-6,0
GONETS-M 24,2022-139B,2026-07-17T17:51:36.436608,12.42892516,.0017304,82.5013,328.3435,162.6865,197.4808,0,U,54151,999,16944,.88206E-4,.22E-6,0
GONETS-M 25,2022-139C,2026-07-17T15:36:09.726048,12.42890889,.0021238,82.5078,329.1047,161.8757,198.3085,0,U,54152,999,16943,.75155E-4,.2E-6,0
SKIF-D,2022-139D,2026-07-16T00:52:51.381984,5.00431247,.00074543,89.9489,96.6599,187.1492,172.9144,0,U,54153,999,6555,0,.13E-6,0
MATS,2022-147A,2026-07-17T11:47:06.760608,15.05510234,.0014117,97.6833,199.9601,96.5545,263.7289,0,U,54227,999,20232,.13214E-3,.1841E-4,0
EOS-6 (OCEANSAT-3),2022-158A,2026-07-17T17:26:23.927712,14.46985093,.0000557,98.3550,296.5167,151.0431,209.0793,0,U,54361,999,19225,.40737E-4,.105E-5,0
DONGPO 09,2022-167D,2026-07-17T18:06:50.533056,15.36967738,.0002635,97.6923,11.1448,46.9047,313.2417,0,U,54685,999,20014,.17854E-3,.6367E-4,0
DONGPO 08,2022-167E,2026-07-17T17:22:52.866336,15.34214075,.0009146,97.6888,8.1448,66.3614,293.8587,0,U,54686,999,20000,.17692E-3,.578E-4,0
2022-167F,2022-167F,2026-07-17T15:41:22.569216,16.28112378,.0009442,97.5965,30.8992,260.9912,99.0312,0,U,54687,999,20171,.77548E-3,.2867526E-1,.2601E-5
DONGPO 10,2022-167H,2026-07-17T17:09:08.652672,15.35030717,.0004745,97.6969,10.1588,20.1963,339.9467,0,U,54689,999,20004,.16772E-3,.5615E-4,0
JILIN-1 GAOFEN 03D48,2022-167P,2026-07-17T15:09:40.983840,15.35823600,.0006239,97.6904,9.4611,22.2107,337.9405,0,U,54695,999,20006,.17754E-3,.6104E-4,0
STAR VIBE,2023-001A,2026-07-17T17:09:03.593952,15.43394111,.0005208,97.3148,263.3163,23.2243,336.9239,0,U,55009,999,19693,.17725E-3,.783E-4,0
BRO-8,2023-001C,2026-07-17T17:07:28.413120,15.50853822,.0004596,97.3180,264.3746,30.5124,329.6395,0,U,55011,999,19693,.34639E-3,.1994E-3,0
CONNECTA T1.2,2023-001D,2026-07-17T16:03:46.783008,15.53010040,.0003565,97.3235,269.9470,353.0789,7.0414,0,U,55012,999,19727,.38678E-3,.2407E-3,0
BIRKELAND,2023-001G,2026-07-17T16:18:00.309600,15.40561911,.0006119,97.3329,266.7351,12.5143,347.6254,0,U,55015,999,19704,.1146E-3,.4574E-4,0
ION SCV-008,2023-001AU,2026-07-17T13:02:45.201408,15.28895878,.0013206,97.5719,295.3775,263.9607,96.0127,0,U,55051,999,19597,.12033E-3,.3306E-4,0
ION SCV-007,2023-001BD,2026-07-17T14:30:04.787712,14.77577324,.001118,97.8990,261.0135,233.5700,126.4481,0,U,55060,999,19074,.31054E-4,.171E-5,0
HUYGENS,2023-001CN,2026-07-17T16:18:07.682112,15.40561251,.0008139,97.3232,265.9253,343.2316,16.8660,0,U,55093,999,19706,.1126E-3,.4495E-4,0
SHARJAHSAT-1,2023-001CZ,2026-07-17T17:17:17.151360,15.50177531,.0004514,97.3144,267.9319,12.2277,347.9083,0,U,55104,999,19722,.19835E-3,.11096E-3,0
HORUS 1,2023-025A,2026-07-17T16:42:12.228768,15.23552588,.0002984,97.3451,272.6493,109.5150,250.6410,0,U,55690,999,18869,.11958E-3,.2788E-4,0
HORUS 2,2023-032A,2026-07-17T15:59:15.380736,15.23358429,.0001251,97.3522,273.4534,137.0695,223.0640,0,U,55844,999,18612,.11879E-3,.2753E-4,0
GLOBAL-19,2023-041B,2026-07-17T16:14:55.500000,15.38722423,.0009961,42.0021,23.9887,233.9127,126.0791,0,U,55982,999,18662,.19638E-3,.7434E-4,0
ION SCV-010,2023-054Q,2026-07-17T10:45:33.132960,15.26435878,.0014645,97.3735,87.5619,97.3013,262.9891,0,U,56192,999,18081,.94721E-4,.2401E-4,0
TELEOS-2,2023-057C,2026-07-17T16:22:34.951872,14.96378569,.0000487,9.9895,342.1410,280.7444,79.2715,0,U,56310,999,17737,.2618E-4,.992E-5,0
SNIPE 4,2023-072B,2026-07-17T16:41:19.537728,15.43457527,.0005017,97.5223,45.6899,195.7635,164.3457,0,U,56744,999,17481,.26755E-3,.11891E-3,0
SNIPE 2,2023-072C,2026-07-17T17:03:03.519360,15.48311632,.0003438,97.5212,48.9689,222.0819,138.0167,0,U,56745,999,17496,.3019E-3,.15866E-3,0
2023-072G,2023-072G,2026-07-17T16:48:27.876960,15.52226668,.0002684,97.4870,47.7992,195.3734,164.7437,0,U,56749,999,17519,.2981E-3,.17996E-3,0
GEISAT PRECURSOR,2023-084C,2026-07-17T17:31:14.508192,15.35030178,.0004675,97.6264,340.7032,219.2880,140.8024,0,U,56934,999,17221,.11089E-3,.3684E-4,0
BLACKJACK ACES-3,2023-084U,2026-07-17T14:41:01.944384,15.18801089,.0000924,97.6251,334.0453,211.4566,148.6613,0,U,56950,999,17178,.12406E-3,.251E-4,0
BLACKJACK ACES-2,2023-084Z,2026-07-17T14:49:43.074624,15.18752031,.0001774,97.6249,334.1349,136.1523,223.9852,0,U,56955,999,17179,.15177E-3,.3082E-4,0
BLACKJACK ACES-1,2023-084AA,2026-07-17T11:21:55.596960,15.18754639,.0002102,97.6237,333.7609,116.8710,243.2739,0,U,56956,999,12149,.1291E-3,.2612E-4,0
ION SCV-011,2023-084AB,2026-07-17T15:05:19.380192,15.29110389,.0005878,98.1379,28.7349,295.6300,64.4331,0,U,56957,999,17046,.97144E-4,.2657E-4,0
GHOST-3,2023-084AC,2026-07-16T22:56:48.763680,15.48829186,.00068711,97.6249,348.1513,179.1341,180.9922,0,U,56958,999,17262,.22601663E-3,.12071E-3,0
AFR-1,2023-084AJ,2026-07-17T14:30:51.681312,15.28788346,.0009424,97.6314,336.0393,225.4702,134.5768,0,U,56964,999,17187,.87308E-4,.2365E-4,0
METEOR-M2 3,2023-091A,2026-07-17T17:35:14.159328,14.24049034,.0005138,98.6067,253.0834,84.5860,275.5905,0,U,57166,999,15886,.89114E-5,-.23E-6,0
UMKA 1 (RS40S),2023-091G,2026-07-17T16:27:17.600832,15.21136434,.0012789,97.5031,257.2692,21.1531,339.0231,0,U,57172,999,16864,.13595E-3,.2961E-4,0
2023-091H,2023-091H,2026-07-17T16:20:14.459424,15.29245655,.0009331,97.5028,262.1303,16.6848,343.4697,0,U,57173,999,16896,.1965E-3,.5504E-4,0
2023-091J,2023-091J,2026-07-17T15:44:57.425280,15.14120308,.0014227,97.5041,251.3188,48.3824,311.8624,0,U,57174,999,16824,.95206E-4,.1672E-4,0
CUBEBEL 2 (EU11S),2023-091K,2026-07-17T16:05:11.258016,15.29857686,.0009285,97.5030,262.1724,18.0940,342.0629,0,U,57175,999,16896,.22755E-3,.6509E-4,0
SITRO-AIS 5 (KATYS),2023-091L,2026-07-17T16:21:56.623968,15.30095961,.0010403,97.5040,262.8830,3.5839,356.5473,0,U,57176,999,16900,.20413E-3,.5875E-4,0
ZORKIY-2M 1,2023-091M,2026-07-17T16:04:32.513664,15.21267163,.0013152,97.5071,257.5432,18.0131,342.1568,0,U,57177,999,16863,.14938E-3,.3274E-4,0
CUBESX-HSE 3 (RS42S),2023-091N,2026-07-17T14:51:45.722016,15.31918639,.0009405,97.5072,264.6042,353.1084,7.0026,0,U,57178,999,16908,.2132E-3,.6498E-4,0
MONITOR-3 (RS58S),2023-091Q,2026-07-17T17:05:51.080064,15.28400028,.0010719,97.5063,262.3921,0.6984,359.4268,0,U,57180,999,16895,.18964E-3,.5174E-4,0
MONITOR-4 (RS57S),2023-091S,2026-07-17T16:33:14.444064,15.28486920,.0010732,97.5057,262.3422,1.0952,359.0309,0,U,57182,999,16895,.18589E-3,.5084E-4,0
